[{"OBJECT_NAME":"IRIDIUM 33","OBJECT_ID":"1997-051C","EPOCH":"2026-04-25T18:57:56.898432","MEAN_MOTION":14.35126625,"ECCENTRICITY":0.0009383,"INCLINATION":86.3917,"RA_OF_ASC_NODE":11.9471,"ARG_OF_PERICENTER":127.3645,"MEAN_ANOMALY":232.8407,"EPHEMERIS_TYPE":0,"CLASSIFICATION_TYPE":"U","NORAD_CAT_ID":24946,"ELEMENT_SET_NO":999,"REV_AT_EPOCH":49757,"BSTAR":7.0184312e-5,"MEAN_MOTION_DOT":2.2e-6,"MEAN_MOTION_DDOT":0},{"OBJECT_NAME":"IRIDIUM 33 DEB","OBJECT_ID":"1997-051L","EPOCH":"2026-04-25T17:14:04.900992","MEAN_MOTION":14.43572161,"ECCENTRICITY":0.00133442,"INCLINATION":86.405,"RA_OF_ASC_NODE":3.8106,"ARG_OF_PERICENTER":72.6894,"MEAN_ANOMALY":287.5765,"EPHEMERIS_TYPE":0,"CLASSIFICATION_TYPE":"U","NORAD_CAT_ID":33773,"ELEMENT_SET_NO":999,"REV_AT_EPOCH":90280,"BSTAR":0.00019876406,"MEAN_MOTION_DOT":6.94e-6,"MEAN_MOTION_DDOT":0},{"OBJECT_NAME":"IRIDIUM 33 DEB","OBJECT_ID":"1997-051N","EPOCH":"2026-04-25T16:01:21.402912","MEAN_MOTION":14.41890785,"ECCENTRICITY":0.001511,"INCLINATION":86.3661,"RA_OF_ASC_NODE":352.3761,"ARG_OF_PERICENTER":80.5612,"MEAN_ANOMALY":342.9325,"EPHEMERIS_TYPE":0,"CLASSIFICATION_TYPE":"U","NORAD_CAT_ID":33775,"ELEMENT_SET_NO":999,"REV_AT_EPOCH":90070,"BSTAR":0.00033008781,"MEAN_MOTION_DOT":1.101e-5,"MEAN_MOTION_DDOT":0},{"OBJECT_NAME":"IRIDIUM 33 DEB","OBJECT_ID":"1997-051P","EPOCH":"2026-04-25T19:00:56.248416","MEAN_MOTION":14.38478726,"ECCENTRICITY":0.0016369,"INCLINATION":86.4081,"RA_OF_ASC_NODE":24.4513,"ARG_OF_PERICENTER":113.3413,"MEAN_ANOMALY":307.5726,"EPHEMERIS_TYPE":0,"CLASSIFICATION_TYPE":"U","NORAD_CAT_ID":33776,"ELEMENT_SET_NO":999,"REV_AT_EPOCH":90009,"BSTAR":0.00017557022,"MEAN_MOTION_DOT":5.57e-6,"MEAN_MOTION_DDOT":0},{"OBJECT_NAME":"IRIDIUM 33 DEB","OBJECT_ID":"1997-051Q","EPOCH":"2026-04-25T15:05:30.904224","MEAN_MOTION":14.56549364,"ECCENTRICITY":0.00075635,"INCLINATION":86.3787,"RA_OF_ASC_NODE":336.9359,"ARG_OF_PERICENTER":150.8356,"MEAN_ANOMALY":209.3276,"EPHEMERIS_TYPE":0,"CLASSIFICATION_TYPE":"U","NORAD_CAT_ID":33777,"ELEMENT_SET_NO":999,"REV_AT_EPOCH":90482,"BSTAR":0.00045851446,"MEAN_MOTION_DOT":2.062e-5,"MEAN_MOTION_DDOT":0},{"OBJECT_NAME":"IRIDIUM 33 DEB","OBJECT_ID":"1997-051T","EPOCH":"2026-04-25T16:12:21.040992","MEAN_MOTION":14.42579112,"ECCENTRICITY":0.00135079,"INCLINATION":86.3415,"RA_OF_ASC_NODE":332.5964,"ARG_OF_PERICENTER":88.2003,"MEAN_ANOMALY":336.459,"EPHEMERIS_TYPE":0,"CLASSIFICATION_TYPE":"U","NORAD_CAT_ID":33850,"ELEMENT_SET_NO":999,"REV_AT_EPOCH":90083,"BSTAR":0.00018289274,"MEAN_MOTION_DOT":6.27e-6,"MEAN_MOTION_DDOT":0},{"OBJECT_NAME":"IRIDIUM 33 DEB","OBJECT_ID":"1997-051W","EPOCH":"2026-04-25T11:31:48.167904","MEAN_MOTION":13.99739326,"ECCENTRICITY":0.02079673,"INCLINATION":85.9956,"RA_OF_ASC_NODE":291.1381,"ARG_OF_PERICENTER":185.6145,"MEAN_ANOMALY":203.5277,"EPHEMERIS_TYPE":0,"CLASSIFICATION_TYPE":"U","NORAD_CAT_ID":33853,"ELEMENT_SET_NO":999,"REV_AT_EPOCH":87216,"BSTAR":0.00094641591,"MEAN_MOTION_DOT":1.687e-5,"MEAN_MOTION_DDOT":0},{"OBJECT_NAME":"IRIDIUM 33 DEB","OBJECT_ID":"1997-051AD","EPOCH":"2026-04-25T14:44:35.335968","MEAN_MOTION":14.69644636,"ECCENTRICITY":0.00064596,"INCLINATION":86.3825,"RA_OF_ASC_NODE":327.8828,"ARG_OF_PERICENTER":232.3779,"MEAN_ANOMALY":181.7171,"EPHEMERIS_TYPE":0,"CLASSIFICATION_TYPE":"U","NORAD_CAT_ID":33860,"ELEMENT_SET_NO":999,"REV_AT_EPOCH":90687,"BSTAR":0.00080861514,"MEAN_MOTION_DOT":4.832e-5,"MEAN_MOTION_DDOT":0},{"OBJECT_NAME":"IRIDIUM 33 DEB","OBJECT_ID":"1997-051AF","EPOCH":"2026-04-25T15:21:30.472128","MEAN_MOTION":14.72810568,"ECCENTRICITY":0.00481381,"INCLINATION":86.4104,"RA_OF_ASC_NODE":338.3409,"ARG_OF_PERICENTER":327.1494,"MEAN_ANOMALY":86.3143,"EPHEMERIS_TYPE":0,"CLASSIFICATION_TYPE":"U","NORAD_CAT_ID":33862,"ELEMENT_SET_NO":999,"REV_AT_EPOCH":90792,"BSTAR":0.0010861786,"MEAN_MOTION_DOT":7.097e-5,"MEAN_MOTION_DDOT":0},{"OBJECT_NAME":"IRIDIUM 33 DEB","OBJECT_ID":"1997-051AK","EPOCH":"2026-04-25T18:17:35.767392","MEAN_MOTION":14.26008233,"ECCENTRICITY":0.0115877,"INCLINATION":86.3022,"RA_OF_ASC_NODE":36.2845,"ARG_OF_PERICENTER":89.7676,"MEAN_ANOMALY":300.807,"EPHEMERIS_TYPE":0,"CLASSIFICATION_TYPE":"U","NORAD_CAT_ID":33866,"ELEMENT_SET_NO":999,"REV_AT_EPOCH":88720,"BSTAR":0.0013342838,"MEAN_MOTION_DOT":3.436e-5,"MEAN_MOTION_DDOT":0},{"OBJECT_NAME":"IRIDIUM 33 DEB","OBJECT_ID":"1997-051AP","EPOCH":"2026-04-25T16:55:03.635616","MEAN_MOTION":14.46619033,"ECCENTRICITY":0.00228423,"INCLINATION":86.3783,"RA_OF_ASC_NODE":0.8137,"ARG_OF_PERICENTER":95.9764,"MEAN_ANOMALY":318.4605,"EPHEMERIS_TYPE":0,"CLASSIFICATION_TYPE":"U","NORAD_CAT_ID":33870,"ELEMENT_SET_NO":999,"REV_AT_EPOCH":90073,"BSTAR":0.00045742749,"MEAN_MOTION_DOT":1.675e-5,"MEAN_MOTION_DDOT":0},{"OBJECT_NAME":"IRIDIUM 33 DEB","OBJECT_ID":"1997-051BA","EPOCH":"2026-04-25T20:21:03.089088","MEAN_MOTION":14.60511912,"ECCENTRICITY":0.00608206,"INCLINATION":86.3833,"RA_OF_ASC_NODE":48.2459,"ARG_OF_PERICENTER":77.352,"MEAN_ANOMALY":342.0796,"EPHEMERIS_TYPE":0,"CLASSIFICATION_TYPE":"U","NORAD_CAT_ID":33881,"ELEMENT_SET_NO":999,"REV_AT_EPOCH":89455,"BSTAR":0.0038287377,"MEAN_MOTION_DOT":0.00019121,"MEAN_MOTION_DDOT":0},{"OBJECT_NAME":"IRIDIUM 33 DEB","OBJECT_ID":"1997-051BD","EPOCH":"2026-04-25T13:41:44.364768","MEAN_MOTION":14.81582013,"ECCENTRICITY":0.00103404,"INCLINATION":86.3658,"RA_OF_ASC_NODE":309.2148,"ARG_OF_PERICENTER":195.2274,"MEAN_ANOMALY":228.1072,"EPHEMERIS_TYPE":0,"CLASSIFICATION_TYPE":"U","NORAD_CAT_ID":33884,"ELEMENT_SET_NO":999,"REV_AT_EPOCH":90826,"BSTAR":0.0016179221,"MEAN_MOTION_DOT":0.00012751,"MEAN_MOTION_DDOT":0},{"OBJECT_NAME":"IRIDIUM 33 DEB","OBJECT_ID":"1997-051BF","EPOCH":"2026-04-25T19:04:48.616032","MEAN_MOTION":14.36218463,"ECCENTRICITY":0.00144313,"INCLINATION":86.3876,"RA_OF_ASC_NODE":10.7963,"ARG_OF_PERICENTER":159.4619,"MEAN_ANOMALY":268.5201,"EPHEMERIS_TYPE":0,"CLASSIFICATION_TYPE":"U","NORAD_CAT_ID":33886,"ELEMENT_SET_NO":999,"REV_AT_EPOCH":89976,"BSTAR":0.0001237888,"MEAN_MOTION_DOT":3.81e-6,"MEAN_MOTION_DDOT":0},{"OBJECT_NAME":"IRIDIUM 33 DEB","OBJECT_ID":"1997-051BG","EPOCH":"2026-04-25T18:12:56.107872","MEAN_MOTION":14.3735883,"ECCENTRICITY":0.00071685,"INCLINATION":86.3002,"RA_OF_ASC_NODE":305.6568,"ARG_OF_PERICENTER":145.8247,"MEAN_ANOMALY":230.3312,"EPHEMERIS_TYPE":0,"CLASSIFICATION_TYPE":"U","NORAD_CAT_ID":33887,"ELEMENT_SET_NO":999,"REV_AT_EPOCH":90090,"BSTAR":0.0001048605,"MEAN_MOTION_DOT":3.33e-6,"MEAN_MOTION_DDOT":0},{"OBJECT_NAME":"IRIDIUM 33 DEB","OBJECT_ID":"1997-051BN","EPOCH":"2026-04-25T15:20:24.276768","MEAN_MOTION":14.56806315,"ECCENTRICITY":0.00176771,"INCLINATION":86.3882,"RA_OF_ASC_NODE":355.6101,"ARG_OF_PERICENTER":16.0233,"MEAN_ANOMALY":15.869,"EPHEMERIS_TYPE":0,"CLASSIFICATION_TYPE":"U","NORAD_CAT_ID":33953,"ELEMENT_SET_NO":999,"REV_AT_EPOCH":90252,"BSTAR":0.00071680998,"MEAN_MOTION_DOT":3.235e-5,"MEAN_MOTION_DDOT":0}]
