IRIDIUM 33              
1 24946U 97051C   26115.79024188  .00000220  00000+0  70184-4 0  9998
2 24946  86.3917  11.9471 0009383 127.3645 232.8407 14.35126625497578
IRIDIUM 33 DEB          
1 33773U 97051L   26115.71811227  .00000694  00000+0  19876-3 0  9991
2 33773  86.4050   3.8106 0013344  72.6894 287.5765 14.43572161902800
IRIDIUM 33 DEB          
1 33775U 97051N   26115.66760882  .00001101  00000+0  33009-3 0  9995
2 33775  86.3661 352.3761 0015110  80.5612 342.9325 14.41890785900705
IRIDIUM 33 DEB          
1 33776U 97051P   26115.79231769  .00000557  00000+0  17557-3 0  9991
2 33776  86.4081  24.4513 0016369 113.3413 307.5726 14.38478726900093
IRIDIUM 33 DEB          
1 33777U 97051Q   26115.62882991  .00002062  00000+0  45851-3 0  9994
2 33777  86.3787 336.9359 0007563 150.8356 209.3276 14.56549364904824
IRIDIUM 33 DEB          
1 33850U 97051T   26115.67524352  .00000627  00000+0  18289-3 0  9995
2 33850  86.3415 332.5964 0013508  88.2003 336.4590 14.42579112900834
IRIDIUM 33 DEB          
1 33853U 97051W   26115.48041860  .00001687  00000+0  94642-3 0  9999
2 33853  85.9956 291.1381 0207967 185.6145 203.5277 13.99739326872164
IRIDIUM 33 DEB          
1 33860U 97051AD  26115.61429786  .00004832  00000+0  80862-3 0  9993
2 33860  86.3825 327.8828 0006460 232.3779 181.7171 14.69644636906876
IRIDIUM 33 DEB          
1 33862U 97051AF  26115.63993602  .00007097  00000+0  10862-2 0  9998
2 33862  86.4104 338.3409 0048138 327.1494  86.3143 14.72810568907925
IRIDIUM 33 DEB          
1 33866U 97051AK  26115.76221953  .00003436  00000+0  13343-2 0  9999
2 33866  86.3022  36.2845 0115877  89.7676 300.8070 14.26008233887201
IRIDIUM 33 DEB          
1 33870U 97051AP  26115.70490318  .00001675  00000+0  45743-3 0  9994
2 33870  86.3783   0.8137 0022842  95.9764 318.4605 14.46619033900738
IRIDIUM 33 DEB          
1 33881U 97051BA  26115.84795242  .00019121  00000+0  38287-2 0  9994
2 33881  86.3833  48.2459 0060821  77.3520 342.0796 14.60511912894551
IRIDIUM 33 DEB          
1 33884U 97051BD  26115.57065236  .00012751  00000+0  16179-2 0  9998
2 33884  86.3658 309.2148 0010340 195.2274 228.1072 14.81582013908269
IRIDIUM 33 DEB          
1 33886U 97051BF  26115.79500713  .00000381  00000+0  12379-3 0  9993
2 33886  86.3876  10.7963 0014431 159.4619 268.5201 14.36218462899762
IRIDIUM 33 DEB          
1 33887U 97051BG  26115.75898272  .00000333  00000+0  10486-3 0  9994
2 33887  86.3002 305.6568 0007169 145.8247 230.3312 14.37358830900901
IRIDIUM 33 DEB          
1 33953U 97051BN  26115.63916986  .00003235  00000+0  71681-3 0  9996
2 33953  86.3882 355.6101 0017677  16.0233  15.8690 14.56806315902520
